#cP2018  1 19  0  0  0.00000000      96 ORBIT IGS14 HLM  IGS
## 1984 432000.00000000   900.00000000 58137 0.0000000000000
+   32   G01G02G03G04G05G06G07G08G09G10G11G12G13G14G15G16G17
+        G18G19G20G21G22G23G24G25G26G27G28G29G30G31G32  0  0
+          0  0  0  0  0  0  0  0  0  0  0  0  0  0  0  0  0
+          0  0  0  0  0  0  0  0  0  0  0  0  0  0  0  0  0
+          0  0  0  0  0  0  0  0  0  0  0  0  0  0  0  0  0
++         2  2  2  0  2  2  2  2  2  2  2  2  2  2  2  3  2
++         3  2  2  2  2  2  2  2  2  2  2  2  2  2  2  0  0
++         0  0  0  0  0  0  0  0  0  0  0  0  0  0  0  0  0
++         0  0  0  0  0  0  0  0  0  0  0  0  0  0  0  0  0
++         0  0  0  0  0  0  0  0  0  0  0  0  0  0  0  0  0
%c G  cc GPS ccc cccc cccc cccc cccc ccccc ccccc ccccc ccccc
%c cc cc ccc ccc cccc cccc cccc cccc ccccc ccccc ccccc ccccc
%f  1.2500000  1.025000000  0.00000000000  0.000000000000000
%f  0.0000000  0.000000000  0.00000000000  0.000000000000000
%i    0    0    0    0      0      0      0      0         0
%i    0    0    0    0      0      0      0      0         0
/* FINAL ORBIT COMBINATION FROM WEIGHTED AVERAGE OF:        
/* cod emr esa gfz grg jpl mit ngs sio                      
/* REFERENCED TO IGS TIME (IGST) AND TO WEIGHTED MEAN POLE: 
/* PCV:IGS14_1984 OL/AL:FES2004  NONE     Y  ORB:CMB CLK:CMB
*  2018  1 19  3  0  0.00000000
PG01  13641.787181 -20631.862018   9147.069924    -24.254608  7  6  6 102       
PG02 -15332.510104  -1235.345004 -21088.481353    224.373437  5  5  7 108       
PG03  19212.140250 -13065.323236 -12844.015050     -7.382912  6  6  5 103       
PG04  16807.799408   9650.786955 -18522.610554 999999.999999
PG05 -26003.628127   1546.259010  -5816.702779    -16.598542  8  8  6  93       
PG06 -10031.060149 -13887.364271 -20260.992208    414.818923  6  4  6  64       
PG07   4561.474172 -25278.446042   5963.431226    249.499340  8 10  6 103       
PG08  15888.939017  -3976.790094  20993.021326    -88.145306  6  6  7  80       
PG09  -3123.652955 -20739.514364 -16328.487402    494.231762  8  7  7  90       
PG10  11724.372892  12220.568158  20525.088112    148.069000  5  5  2  94       
PG11  10406.762329 -18660.443686  15300.255852   -734.358339  8  7  6  95       
PG12 -21469.895101  10626.481175 -11418.242219    354.768919  9  9  9  90       
PG13 -18734.908813  -5381.798694  17916.049211    -95.399200  5  6  4 115       
PG14  18637.425878  18108.613911  -5631.859635    -92.625470  8  8  5 104       
PG15 -15538.324371   6305.106186  20458.522461   -357.337454  8  7  4 104       
PG16  26277.988075    330.024607  -5313.968660     33.817850  8 10  9 103       
PG17 -14725.192271 -21990.499670   3386.074678   -129.861370  4  4  6 106       
PG18   -414.677519  16628.757315  21288.024183    633.511027  6  7  5  79       
PG19 -18015.984572 -18692.965554  -5336.091288   -462.810550  2  5  6 132       
PG20 -19988.327954  14184.906534  10032.998157    498.652831  7  7  4 120       
PG21   -869.179106  25401.730197   8428.625026   -440.240108  7  4  3 123       
PG22  23657.478236 -10569.689573  -5641.470602   -261.746878  6  5  8 121       
PG23   8323.210064 -13491.236461 -20997.214889   -219.089884  9  4  7  92       
PG24 -14425.998521  18621.026093  11882.817935    -44.967018  6  4  5 123       
PG25  -9424.910261  15398.514555 -19560.335742   -524.637229  7  8  5 100       
PG26  21326.783515   5930.652228 -14765.168084   -282.284833  5  6  8 103       
PG27  20713.765783   8658.413730  14321.098118    363.275460  5  7  5  83       
PG28  -7056.035235 -13892.521503  22138.332525    681.063972  5  6  7 109       
PG29  -1546.031041  18531.158420 -18981.555527    509.101627  8 10  8 103       
PG30  -1666.695821 -22624.730879  13695.312124    111.314862  5  7  7 102       
PG31  10555.015215  12723.397471 -20643.791785    147.667762  7  6  5 104       
PG32  16423.910377  20787.756515   2385.352351   -532.965682  6  5  4 109       
*  2018  1 19  3 15  0.00000000
PG01  13501.214425 -19401.967716  11685.838829    -24.256275  7  6  7 103       
PG02 -14760.879615  -3713.091825 -21227.510907    224.364377  4  5  6 103       
PG03  20557.344212 -13160.183849 -10430.300310     -7.376714  5  6  5  97       
PG04  14726.494432  10168.740129 -19954.441461 999999.999999
PG05 -25291.668066   1093.796281  -8475.316970    -16.597762  7  7  6 105       
PG06  -9296.435340 -16017.190150 -19001.288241    414.819028  6  4  6  76       
PG07   4985.487985 -25673.532983   3147.376116    249.494337  8 10  7 101       
PG08  17454.081030  -2251.735399  19990.388136    -88.146362  6  6  7  80       
PG09  -1636.763115 -19446.837346 -18049.958681    494.234686  9  7  6  47       
PG10   9421.294694  12841.865395  21305.092987    148.074033  4  5  3  91       
PG11  10908.854768 -16752.462183  16990.828629   -734.358967  7  7  7  89       
PG12 -22619.917439  10656.656018  -8820.116953    354.767090  9  9  8  99       
PG13 -19788.847505  -7049.838718  16125.797944    -95.399763  5  6  4 112       
PG14  18773.397775  18659.434834  -2840.492921    -92.625972  8  7  5 105       
PG15 -17207.919658   4668.596490  19585.787729   -357.337506  8  7  3 105       
PG16  25569.067605    577.249097  -8065.013463     33.817447  7 10  9  96       
PG17 -14264.398768 -21724.659099   6206.021350   -129.858838  4  4  6 113       
PG18  -2635.810928  17199.800287  20631.754542    633.511360  6  7  5  79       
PG19 -18104.064361 -19153.426906  -2478.160927   -462.808661  2  5  6 103       
PG20 -21064.301144  14221.556603   7491.879752    498.653738  7  7  4 123       
PG21  -1317.022016  26034.072527   5762.881732   -440.236702  7  5  3 116       
PG22  24254.261101 -10380.553526  -2918.057053   -261.758465  7  6  8 116       
PG23  10089.371254 -11741.384039 -21306.721033   -219.090073  9  4  7  99       
PG24 -14303.631230  17085.262400  14132.626744    -44.967474  6  4  5 112       
PG25 -11521.204933  15769.834651 -18051.843587   -524.642683  7  8  5  93       
PG26  19628.183722   6546.676157 -16719.227465   -282.272302  5  5  7  79       
PG27  21640.395984   9854.626053  12022.378216    363.277190  4  6  5  78       
PG28  -4673.150694 -14273.183082  22538.676856    681.066944  5  6  6 113       
PG29  -3051.910262  16870.908147 -20300.727035    509.096723  8 10  8 107       
PG30   -942.393023 -23898.222795  11395.711537    111.312003  5  7  7  91       
PG31   9717.011212  14888.761759 -19544.359338    147.665415  6  4  6  93       
PG32  15940.389200  20655.638179   5185.538075   -532.965920  6  5  3 111       
*  2018  1 19  3 30  0.00000000
PG01  13360.824360 -17895.414047  14019.076920    -24.257854  7  7  7 110       
PG02 -14312.156093  -6206.652524 -20982.584693    224.355071  4  6  5  97       
PG03  21624.426002 -13243.021915  -7836.747728     -7.370524  5  6  5  99       
PG04  12539.869530  10840.473044 -21052.161178 999999.999999
PG05 -24326.938388    517.279517 -10990.281742    -16.596879  6  7  6  52       
PG06  -8713.142759 -18025.749142 -17413.626463    414.819043  6  4  5  97       
PG07   5310.249910 -25774.785067    275.820612    249.489296  7 10  7  79       
PG08  19011.233487   -703.097146  18646.586854    -88.147330  5  5  6 101       
PG09     43.917950 -18111.812445 -19461.622868    494.237592  9  7  5  70       
PG10   7088.034620  13602.882006  21720.160249    148.079008  4  5  3  83       
PG11  11523.784622 -14690.564225  18378.058007   -734.360051  7  7  7 100       
PG12 -23471.945230  10679.687197  -6069.426372    354.765265  9  9  8  78       
PG13 -20788.299653  -8490.723801  14055.600855    -95.399175  5  6  5 117       
PG14  18725.127960  18965.423244     -0.541369    -92.626652  8  7  5  99       
PG15 -18857.399088   3189.174668  18373.187085   -357.337476  8  7  2 111       
PG16  24581.405585    928.796872 -10681.191190     33.816775  5 10  9 113       
PG17 -13575.502907 -21260.132054   8921.083867   -129.856616  4  4  5  99       
PG18  -4744.906328  17847.005680  19637.116232    633.511572  7  7  5  75       
PG19 -17999.028096 -19364.002103    422.820340   -462.806040  3  4  6  95       
PG20 -21864.597921  14195.872906   4820.879632    498.654301  7  8  4 128       
PG21  -1683.169461  26390.101532   2999.530465   -440.232650  7  6  4 122       
PG22  24566.408634 -10116.570891   -144.297940   -261.770077  7  7  8 111       
PG23  11945.382539 -10072.628521 -21240.233048   -219.090129  9  4  7  89       
PG24 -14209.156020  15308.506356  16134.391078    -44.968179  6  4  4 116       
PG25 -13416.597485  16200.711022 -16233.940362   -524.648199  7  8  5  85       
PG26  17768.241785   7312.467883 -18386.909730   -282.259780  6  5  7  90       
PG27  22432.326646  10812.098380   9518.704433    363.278953  4  5  5  95       
PG28  -2293.827898 -14796.318991  22573.230302    681.070129  5  7  6 103       
PG29  -4737.170116  15202.695931 -21271.036572    509.092110  7 10  9  98       
PG30   -358.317576 -24945.577722   8898.498463    111.309084  5  7  6  77       
PG31   9029.067310  16957.872141 -18103.305384    147.663099  6  4  6  85       
PG32  15222.404403  20337.050293   7896.888361   -532.966145  5  4  3 115       
EOF
